NORAD_CAT_ID,OBJECT_NAME,OBJECT_TYPE,EPOCH,MEAN_MOTION,ECCENTRICITY,INCLINATION,RA_OF_ASC_NODE,ARG_OF_PERICENTER,MEAN_ANOMALY,BSTAR,MEAN_MOTION_DOT,MEAN_MOTION_DDOT,TLE_LINE0,TLE_LINE1,TLE_LINE2,SEMIMAJOR_AXIS,PERIOD,APOGEE,PERIGEE,DECAYED
52501.0,STARLINK-3907,PAYLOAD,2023-09-12 04:22:35,15.08850146,0.0001293,53.216,171.8552,87.8093,272.3047,5.2797e-05,5.53e-06,0.0,0 STARLINK-3907,1 52501U 22049BC  23255.18235145  .00000553  00000-0  52797-4 0  9993,2 52501  53.2160 171.8552 0001293  87.8093 272.3047 15.08850146 75253,6917.849,95.437,540.609,538.82,0.0
52501.0,STARLINK-3907,PAYLOAD,2023-09-13 01:02:36,15.08845147,0.0001323,53.217,167.99,88.2101,271.9042,5.7363e-05,6.25e-06,0.0,0 STARLINK-3907,1 52501U 22049BC  23256.04347551  .00000625  00000-0  57363-4 0  9998,2 52501  53.2170 167.9900 0001323  88.2101 271.9042 15.08845147 75385,6917.865,95.437,540.645,538.814,0.0
52501.0,STARLINK-3907,PAYLOAD,2023-09-13 04:13:22,15.08849134,0.0001182,53.2158,167.3944,87.1211,272.9917,0.00012281,1.668e-05,0.0,0 STARLINK-3907,1 52501U 22049BC  23256.17595099  .00001668  00000-0  12281-3 0  9991,2 52501  53.2158 167.3944 0001182  87.1211 272.9917 15.08849134 75243,6917.852,95.437,540.535,538.9,0.0
52501.0,STARLINK-3907,PAYLOAD,2023-09-13 21:42:36,15.08848549,0.0001544,53.2163,164.1225,90.3577,269.7592,2.9292e-06,-2.41e-06,0.0,0 STARLINK-3907,1 52501U 22049BC  23256.90459322 -.00000241  00000-0  29292-5 0  9999,2 52501  53.2163 164.1225 0001544  90.3577 269.7592 15.08848549 75353,6917.854,95.437,540.787,538.651,0.0
52501.0,STARLINK-3907,PAYLOAD,2023-09-14 02:28:45,15.08865245,9.9e-05,53.2173,163.234,96.446,263.6645,-1.0846e-05,-4.61e-06,0.0,0 STARLINK-3907,1 52501U 22049BC  23257.10330018 -.00000461  00000-0 -10846-4 0  9991,2 52501  53.2173 163.2340 0000990  96.4460 263.6645 15.08865245 75549,6917.803,95.436,540.353,538.983,0.0
52501.0,STARLINK-3907,PAYLOAD,2023-09-14 04:04:08,15.08859624,0.000122,53.217,162.9356,94.7368,265.3763,8.9153e-05,1.132e-05,0.0,0 STARLINK-3907,1 52501U 22049BC  23257.16954050  .00001132  00000-0  89153-4 0  9996,2 52501  53.2170 162.9356 0001220  94.7368 265.3763 15.08859624 75391,6917.82,95.436,540.529,538.841,0.0
52501.0,STARLINK-3907,PAYLOAD,2023-09-14 21:33:25,15.08832738,0.0001345,53.2164,159.6621,90.1169,269.9977,-8.3108e-05,-1.61e-05,0.0,0 STARLINK-3907,1 52501U 22049BC  23257.89820633 -.00001610  00000-0 -83108-4 0  9992,2 52501  53.2164 159.6621 0001345  90.1169 269.9977 15.08832738 75506,6917.903,95.438,540.698,538.837,0.0
52501.0,STARLINK-3907,PAYLOAD,2023-09-15 00:44:11,15.08832438,0.0001254,53.2165,159.0695,79.536,280.5773,-9.0006e-05,-1.72e-05,0.0,0 STARLINK-3907,1 52501U 22049BC  23258.03068761 -.00001720  00000-0 -90006-4 0  9992,2 52501  53.2165 159.0695 0001254  79.5360 280.5773 15.08832438 75684,6917.904,95.438,540.636,538.901,0.0
52501.0,STARLINK-3907,PAYLOAD,2023-09-16 00:34:57,15.0884846,0.0001384,53.2172,154.6094,97.7706,262.3443,0.00011376,1.523e-05,0.0,0 STARLINK-3907,1 52501U 22049BC  23259.02427346  .00001523  00000-0  11376-3 0  9991,2 52501  53.2172 154.6094 0001384  97.7706 262.3443 15.08848460 75837,6917.855,95.437,540.677,538.762,0.0
52501.0,STARLINK-3907,PAYLOAD,2023-09-16 03:45:43,15.0885249,0.0001411,53.2174,154.0155,100.4255,259.6896,0.00014776,2.065e-05,0.0,0 STARLINK-3907,1 52501U 22049BC  23259.15675018  .00002065  00000-0  14776-3 0  9995,2 52501  53.2174 154.0155 0001411 100.4255 259.6896 15.08852490 75696,6917.842,95.437,540.683,538.731,0.0
52501.0,STARLINK-3907,PAYLOAD,2023-09-17 02:01:08,15.08837488,0.0001379,53.2172,149.8514,85.2791,274.8358,0.00017352,2.475e-05,0.0,0 STARLINK-3907,1 52501U 22049BC  23260.08412597  .00002475  00000-0  17352-3 0  9998,2 52501  53.2172 149.8514 0001379  85.2791 274.8358 15.08837488 75998,6917.888,95.438,540.707,538.799,0.0
52501.0,STARLINK-3907,PAYLOAD,2023-09-18 01:51:54,15.08857534,0.0001401,53.2159,145.3916,83.2012,276.914,0.00022579,3.309e-05,0.0,0 STARLINK-3907,1 52501U 22049BC  23261.07771516  .00003309  00000-0  22579-3 0  9991,2 52501  53.2159 145.3916 0001401  83.2012 276.9140 15.08857534 76144,6917.827,95.436,540.661,538.723,0.0
52501.0,STARLINK-3907,PAYLOAD,2023-09-18 22:31:56,15.08841788,0.0001342,53.2155,141.5258,81.4948,278.6196,0.00014755,2.061e-05,0.0,0 STARLINK-3907,1 52501U 22049BC  23261.93884424  .00002061  00000-0  14755-3 0  9990,2 52501  53.2155 141.5258 0001342  81.4948 278.6196 15.08841788 76110,6917.875,95.437,540.668,538.812,0.0
52501.0,STARLINK-3907,PAYLOAD,2023-09-19 01:42:42,15.08847728,0.0001411,53.2153,140.9307,81.1263,278.9889,0.00026562,3.943e-05,0.0,0 STARLINK-3907,1 52501U 22049BC  23262.07132228  .00003943  00000-0  26562-3 0  9993,2 52501  53.2153 140.9307 0001411  81.1263 278.9889 15.08847728 76291,6917.857,95.437,540.698,538.746,0.0
52501.0,STARLINK-3907,PAYLOAD,2023-09-20 01:33:28,15.08863633,0.0001467,53.2157,136.4687,81.7986,278.3173,0.0005848,9.037e-05,0.0,0 STARLINK-3907,1 52501U 22049BC  23263.06491288  .00009037  00000-0  58480-3 0  9991,2 52501  53.2157 136.4687 0001467  81.7986 278.3173 15.08863633 76287,6917.808,95.436,540.688,538.658,0.0
52501.0,STARLINK-3907,PAYLOAD,2023-09-20 19:02:44,15.08825505,0.000142,53.2158,133.1978,102.211,257.9041,-0.00033127,-5.554e-05,0.0,0 STARLINK-3907,1 52501U 22049BC  23263.79356499 -.00005554  00000-0 -33127-3 0  9998,2 52501  53.2158 133.1978 0001420 102.2110 257.9041 15.08825505 76555,6917.925,95.438,540.772,538.807,0.0
52501.0,STARLINK-3907,PAYLOAD,2023-09-20 22:13:30,15.08822657,0.0001303,53.2158,132.6034,102.6679,257.4459,-0.00031864,-5.353e-05,0.0,0 STARLINK-3907,1 52501U 22049BC  23263.92604837 -.00005353  00000-0 -31864-3 0  9998,2 52501  53.2158 132.6034 0001303 102.6679 257.4459 15.08822657 76414,6917.933,95.439,540.7,538.897,0.0
52501.0,STARLINK-3907,PAYLOAD,2023-09-20 23:48:53,15.08822033,0.0001278,53.2158,132.3062,101.1795,258.9341,-0.00030073,-5.068e-05,0.0,0 STARLINK-3907,1 52501U 22049BC  23263.99228942 -.00005068  00000-0 -30073-3 0  9998,2 52501  53.2158 132.3062 0001278 101.1795 258.9341 15.08822033 76421,6917.935,95.439,540.684,538.916,0.0
52501.0,STARLINK-3907,PAYLOAD,2023-09-21 18:53:31,15.08831221,0.0001164,53.2155,128.7378,109.1885,250.9233,0.0001785,2.553e-05,0.0,0 STARLINK-3907,1 52501U 22049BC  23264.78717473  .00002553  00000-0  17850-3 0  9990,2 52501  53.2155 128.7378 0001164 109.1885 250.9233 15.08831221 76701,6917.907,95.438,540.577,538.967,0.0
52501.0,STARLINK-3907,PAYLOAD,2023-09-21 22:04:18,15.0883873,0.0001167,53.2154,128.1453,111.5602,248.5515,0.00043616,6.66e-05,0.0,0 STARLINK-3907,1 52501U 22049BC  23264.91965460  .00006660  00000-0  43616-3 0  9998,2 52501  53.2154 128.1453 0001167 111.5602 248.5515 15.08838730 76567,6917.884,95.438,540.557,538.942,0.0
52501.0,STARLINK-3907,PAYLOAD,2023-09-22 01:15:04,15.08843199,0.0001103,53.2152,127.5489,103.8228,256.2887,0.00078482,0.00012226,0.0,0 STARLINK-3907,1 52501U 22049BC  23265.05213604  .00012226  00000-0  78482-3 0  9994,2 52501  53.2152 127.5489 0001103 103.8228 256.2887 15.08843199 76748,6917.871,95.437,540.499,538.973,0.0
52501.0,STARLINK-3907,PAYLOAD,2023-09-22 21:55:04,15.08856713,0.0001097,53.2153,123.6846,109.798,250.3131,0.00060825,9.41e-05,0.0,0 STARLINK-3907,1 52501U 22049BC  23265.91325149  .00009410  00000-0  60825-3 0  9990,2 52501  53.2153 123.6846 0001097 109.7980 250.3131 15.08856713 76715,6917.829,95.436,540.453,538.935,0.0
52501.0,STARLINK-3907,PAYLOAD,2023-09-23 01:05:50,15.08863156,0.0001082,53.2155,123.0888,105.8762,254.2349,0.00077917,0.00012142,0.0,0 STARLINK-3907,1 52501U 22049BC  23266.04572906  .00012142  00000-0  77917-3 0  9996,2 52501  53.2155 123.0888 0001082 105.8762 254.2349 15.08863156 76731,6917.81,95.436,540.423,538.926,0.0
52501.0,STARLINK-3907,PAYLOAD,2023-09-23 18:35:05,15.08847747,0.0002051,53.2155,119.8175,138.4412,221.6736,9.4213e-05,1.212e-05,0.0,0 STARLINK-3907,1 52501U 22049BC  23266.77436756  .00001212  00000-0  94213-4 0  9993,2 52501  53.2155 119.8175 0002051 138.4412 221.6736 15.08847747 77001,6917.857,95.437,541.141,538.303,0.0
52501.0,STARLINK-3907,PAYLOAD,2023-09-24 00:56:38,15.08845523,0.000124,53.2164,118.6271,87.6015,272.5119,8.5911e-05,1.08e-05,0.0,0 STARLINK-3907,1 52501U 22049BC  23267.03933143  .00001080  00000-0  85911-4 0  9993,2 52501  53.2164 118.6271 0001240  87.6015 272.5119 15.08845523 76883,6917.864,95.437,540.586,538.871,0.0
52501.0,STARLINK-3907,PAYLOAD,2023-09-24 20:01:15,15.08845711,0.0001205,53.2166,115.0574,85.726,274.3869,0.00010972,1.459e-05,0.0,0 STARLINK-3907,1 52501U 22049BC  23267.83421108  .00001459  00000-0  10972-3 0  9998,2 52501  53.2166 115.0574 0001205  85.7260 274.3869 15.08845711 77167,6917.863,95.437,540.562,538.894,0.0
52501.0,STARLINK-3907,PAYLOAD,2023-09-24 21:36:38,15.08846196,0.000124,53.2166,114.7602,80.6412,279.472,0.00013428,1.85e-05,0.0,0 STARLINK-3907,1 52501U 22049BC  23267.90045116  .00001850  00000-0  13428-3 0  9991,2 52501  53.2166 114.7602 0001240  80.6412 279.4720 15.08846196 77011,6917.861,95.437,540.584,538.869,0.0
52501.0,STARLINK-3907,PAYLOAD,2023-09-25 07:08:57,15.08847869,0.000108,53.2158,112.9774,96.5798,263.5317,0.00020826,3.029e-05,0.0,0 STARLINK-3907,1 52501U 22049BC  23268.29788973  .00003029  00000-0  20826-3 0  9999,2 52501  53.2158 112.9774 0001080  96.5798 263.5317 15.08847869 77077,6917.856,95.437,540.468,538.974,0.0
52501.0,STARLINK-3907,PAYLOAD,2023-09-25 19:52:02,15.08847175,0.000108,53.2155,110.5986,101.5173,258.5941,0.00037956,5.759e-05,0.0,0 STARLINK-3907,1 52501U 22049BC  23268.82780982  .00005759  00000-0  37956-3 0  9994,2 52501  53.2155 110.5986 0001080 101.5173 258.5941 15.08847175 77153,6917.858,95.437,540.471,538.976,0.0
52501.0,STARLINK-3907,PAYLOAD,2023-09-25 23:02:49,15.08845179,0.0001266,53.2158,110.0031,103.6127,256.5006,0.00074255,0.00011551,0.0,0 STARLINK-3907,1 52501U 22049BC  23268.96029212  .00011551  00000-0  74255-3 0  9991,2 52501  53.2158 110.0031 0001266 103.6127 256.5006 15.08845179 77332,6917.865,95.437,540.605,538.854,0.0
